#cP2022  4 10 12  0  0.00000000     576 d+D   IGb14 EXT AIUB
## 2205  43200.00000000   300.00000000 59679 0.5000000000000
+   77   G01G02G03G04G05G06G07G08G09G10G11G12G13G14G15G16G17
+        G18G19G20G21G22G23G24G25G26G27G28G29G30G31G32R01R02
+        R03R04R05R07R08R09R12R13R14R15R17R18R19R20R21R22R24
+        E01E02E03E04E05E07E08E09E10E11E12E13E14E15E18E19E21
+        E24E25E26E27E30E31E33E34E36  0  0  0  0  0  0  0  0
++         6  7  6  7  7  8  7  6  6  5  9  7  7  7  7  7  7
++         8  7  7  7  7  7  7  6  6  6  7  7  6  7  6  7  7
++         7  7  7  6  6  7  8  8  7  8  8  7  8  9  8  8  7
++         5  6  6  6  6  7  6  6  7  6  7  6  6  6  6  6  6
++         6  6  7  6  6  6  6  7  6  0  0  0  0  0  0  0  0
%c M  cc GPS ccc cccc cccc cccc cccc ccccc ccccc ccccc ccccc
%c cc cc ccc ccc cccc cccc cccc cccc ccccc ccccc ccccc ccccc
%f  1.2500000  1.025000000  0.00000000000  0.000000000000000
%f  0.0000000  0.000000000  0.00000000000  0.000000000000000
%i    0    0    0    0      0      0      0      0         0
%i    0    0    0    0      0      0      0      0         0
/* Center for Orbit Determination in Europe (CODE)          
/* Ultra-rapid GRE orbits starting year-day 22100 12 hour   
/* Observed/predicted: 24/24 hours (data used up to 101L)   
/* PCV:IGS14      OL/AL:FES2014b NONE     YN ORB:CoN CLK:BRD
*  2022  4 11 20 35  0.00000000
PG01  17311.366996   6080.196516  19047.351392    387.278906               P   P
PG02 -14921.430982 -21795.638043  -1194.265832   -653.052038               P   P
PG03  18145.874342  -5355.019898  18488.271718   -202.639949               P   P
PG04  26554.552317    735.435514  -1481.295763   -176.698329               P   P
PG05 -11376.329825 -10672.260029 -21644.830770    -77.954230               P   P
PG06  -3564.427527 -23484.140804  11866.320433    263.271262               P   P
PG07  11068.037003 -11095.198720 -20989.718997    319.870182               P   P
PG08  24610.812208   6171.470153  -8481.262720    -63.536509               P   P
PG09  22642.350342  -7874.129615 -11532.848542   -344.340453               P   P
PG10 -10775.438465  23656.823076   4775.757407   -376.068697               P   P
PG11 -13048.501441 -22941.000896  -3065.197493    -42.034633               P   P
PG12 -17243.468191    542.743143  19888.909532   -198.876062               P   P
PG13 -18316.843933 -13098.481047 -14368.406568    292.485370               P   P
PG14  12483.924720 -23103.879612   3664.771861   -101.757980               P   P
PG15 -25295.728238  -3731.187205  -8175.720557    -69.693131               P   P
PG16   6756.925687  15005.122860 -21020.154206   -490.642491               P   P
PG17   8095.029686 -13825.982643  21624.970857    599.107421               P   P
PG18 -10971.036985  10925.786002 -21571.925659    197.904900               P   P
PG19    -94.246536 -14827.747301  21785.056091    143.106996               P   P
PG20  -5392.882457 -19531.955966 -17285.690257    515.871415               P   P
PG21  19434.033060  14655.949307  12043.512589    160.350758               P   P
PG22   3458.258497  15607.653794  21646.557955    241.837309               P   P
PG23 -16554.183093  19708.481666  -6356.677001    -14.196428               P   P
PG24 -19470.466445  -9041.588403  15598.951800    257.829023               P   P
PG25 -18592.660548  14299.804673  11902.846070    310.674584               P   P
PG26  -1152.067432  22732.461694 -13516.711380    197.884466               P   P
PG27  15916.158724  12504.057095 -17611.733931    180.615434               P   P
PG28   6609.863187 -22899.278360  12471.534249    372.230180               P   P
PG29 -23828.426397   4734.985338 -10859.111839   -501.967910               P   P
PG30   4733.543685 -19147.195771 -17597.349451   -523.308154               P   P
PG31   4914.024051  24130.709296   9188.602375   -172.997728               P   P
PG32  -4529.475083  15034.643178  21541.548177   -103.394070               P   P
PR01  21264.027928 -12979.682135  -5437.566870      7.720880               P   P
PR02   6260.071824 -13408.212958 -20746.091015    515.260793               P   P
PR03 -11669.454391  -6115.013889 -21781.665424     54.731034               P   P
PR04 -22696.633610   4545.837892 -10675.670489    136.253493               P   P
PR05 -21271.414675  12553.130939   6346.746843     90.958551               P   P
PR07  12401.917225   5702.195718  21602.541726     33.756003               P   P
PR08  22755.444586  -4581.713921  10665.508634    -64.467621               P   P
PR09  -1502.107818  25471.609363  -1265.011966     49.263295               P   P
PR12   9186.964515 -18100.334782 -15439.517627     17.865561               P   P
PR13   2205.559646 -25413.824504     15.084472    -20.717271               P   P
PR14  -6603.426728 -17792.337488  17043.267345     76.395459               P   P
PR15 -11076.780653    -46.915680  22992.565188     96.901104               P   P
PR17 -18703.196192 -16594.797250   5135.449699    516.733834               P   P
PR18 -20823.601221  -9039.799800 -11561.462707    113.236010               P   P
PR19 -13003.012602   2093.081539 -21846.233439   -185.013266               P   P
PR20   4871.349646  15111.669202 -19976.087773    -68.455053               P   P
PR21  19254.401484  16310.989081  -3664.205016   -292.548088               P   P
PR22  20633.541928   8693.272746  12303.716998   -176.247259               P   P
PR24  -5574.525760 -15557.934398  19446.999246     88.634960               P   P
PE01   1410.052551 -25915.976849  14234.943699   -614.509230               P   P
PE02  -1261.780519  25835.046880 -14381.728559    292.200908               P   P
PE03   5442.685839  16489.899370  23973.979050   -546.993397               P   P
PE04 -24173.012297  -8332.005642 -14903.525810  -1004.445510               P   P
PE05 -16835.247812  15098.515316  19108.382643   -191.752013               P   P
PE07  29005.932908  -4933.558093  -3182.795581   -657.623114               P   P
PE08  24399.317156   7977.228574  14733.829170   -510.690285               P   P
PE09 -28960.057756   5149.083075   3391.844403   -480.922831               P   P
PE10 -21535.227890 -11002.333515 -17073.227862   -506.100653               P   P
PE11 -18724.629039   -583.759850 -22920.194360   3985.296106               P   P
PE12 -20747.065072 -19165.249517  -8813.900388   4667.726941               P   P
PE13  18980.590023   1325.042867  22681.895075    427.960240               P   P
PE14  24962.143497   2416.518889   -122.249416  -1810.638338               P   P
PE15  20752.267650  19250.405585   8684.645075    752.263155               P   P
PE18 -28508.904941   7021.934611 -12150.122578  -1576.057864               P   P
PE19  -2576.440312 -16750.431288 -24257.484151  -2852.307791               P   P
PE21  14121.879538 -25858.948710  -2876.339531   -727.894717               P   P
PE24 -19573.436387   9578.314392  20003.878981   -555.674043               P   P
PE25 -14257.958544  25746.556819   3127.483812   -570.049903               P   P
PE26   5445.929289 -18068.929379  22805.473368  -1019.021637               P   P
PE27  19561.627743 -10952.793993 -19335.226661   -274.036676               P   P
PE30  12871.761088  11376.539403 -24116.645829   -422.903274               P   P
PE31 -13443.395844 -10287.028625  24284.628378   -494.921634               P   P
PE33 -10266.220676 -25741.275965  10382.186252   -457.698779               P   P
PE34  10469.756508  25743.488470 -10197.672214   -511.556526               P   P
PE36  -6061.266916  17274.713213 -23261.213358   -358.300481               P   P
EOF
